{
  "type": "FeatureCollection",
  "features": [
    {
      "type": "Feature",
      "properties": {
        "norad_id": 66527,
        "name": "STARLINK-35935",
        "group": "last-30-days",
        "lat": 41.512266798201956,
        "lon": -174.37805367011393,
        "alt_km": 394.2545519997666,
        "timestamp": "2025-12-08T17:43:03.632179+00:00",
        "meta_object_name": "STARLINK-35935",
        "meta_object_id": "2025-265M",
        "meta_epoch": "2025-12-08T06:00:02.999808",
        "meta_mean_motion": 15.57919779,
        "meta_eccentricity": 0.00011202,
        "meta_inclination": 43.0005,
        "meta_ra_of_asc_node": 80.2785,
        "meta_arg_of_pericenter": 262.715,
        "meta_mean_anomaly": 341.3054,
        "meta_ephemeris_type": 0,
        "meta_classification_type": "U",
        "meta_norad_cat_id": 66527,
        "meta_element_set_no": 999,
        "meta_rev_at_epoch": 427,
        "meta_bstar": -0.029253823,
        "meta_mean_motion_dot": -0.01972884,
        "meta_mean_motion_ddot": 0,
        "tle_line1": "1 66527U 25265M   25342.25003472 -.01972884  00000+0 -29254-1 0  9998",
        "tle_line2": "2 66527  43.0005  80.2785 0001120 262.7150 341.3054 15.57919779  4270"
      },
      "geometry": {
        "type": "Point",
        "coordinates": [
          -174.37805367011393,
          41.512266798201956
        ]
      }
    },
    {
      "type": "Feature",
      "properties": {
        "norad_id": 66528,
        "name": "STARLINK-35928",
        "group": "last-30-days",
        "lat": 41.0756962698499,
        "lon": -171.89226583647465,
        "alt_km": 394.27953227522903,
        "timestamp": "2025-12-08T17:43:03.632189+00:00",
        "meta_object_name": "STARLINK-35928",
        "meta_object_id": "2025-265N",
        "meta_epoch": "2025-12-08T06:00:02.999808",
        "meta_mean_motion": 15.5791555,
        "meta_eccentricity": 0.00010742,
        "meta_inclination": 43.0006,
        "meta_ra_of_asc_node": 80.2738,
        "meta_arg_of_pericenter": 264.9149,
        "meta_mean_anomaly": 341.0234,
        "meta_ephemeris_type": 0,
        "meta_classification_type": "U",
        "meta_norad_cat_id": 66528,
        "meta_element_set_no": 999,
        "meta_rev_at_epoch": 427,
        "meta_bstar": -0.029133483,
        "meta_mean_motion_dot": -0.01965456,
        "meta_mean_motion_ddot": 0,
        "tle_line1": "1 66528U 25265N   25342.25003472 -.01965456  00000+0 -29133-1 0  9992",
        "tle_line2": "2 66528  43.0006  80.2738 0001074 264.9149 341.0234 15.57915550  4270"
      },
      "geometry": {
        "type": "Point",
        "coordinates": [
          -171.89226583647465,
          41.0756962698499
        ]
      }
    },
    {
      "type": "Feature",
      "properties": {
        "norad_id": 66529,
        "name": "STARLINK-35933",
        "group": "last-30-days",
        "lat": 40.58760705464811,
        "lon": -169.45062788351908,
        "alt_km": 394.40868221158416,
        "timestamp": "2025-12-08T17:43:03.632200+00:00",
        "meta_object_name": "STARLINK-35933",
        "meta_object_id": "2025-265P",
        "meta_epoch": "2025-12-08T06:00:02.999808",
        "meta_mean_motion": 15.57924433,
        "meta_eccentricity": 0.00011153,
        "meta_inclination": 43.0002,
        "meta_ra_of_asc_node": 80.2686,
        "meta_arg_of_pericenter": 265.9164,
        "meta_mean_anomaly": 341.9349,
        "meta_ephemeris_type": 0,
        "meta_classification_type": "U",
        "meta_norad_cat_id": 66529,
        "meta_element_set_no": 999,
        "meta_rev_at_epoch": 427,
        "meta_bstar": -0.029385055,
        "meta_mean_motion_dot": -0.01980943,
        "meta_mean_motion_ddot": 0,
        "tle_line1": "1 66529U 25265P   25342.25003472 -.01980943  00000+0 -29385-1 0  9990",
        "tle_line2": "2 66529  43.0002  80.2686 0001115 265.9164 341.9349 15.57924433  4279"
      },
      "geometry": {
        "type": "Point",
        "coordinates": [
          -169.45062788351908,
          40.58760705464811
        ]
      }
    },
    {
      "type": "Feature",
      "properties": {
        "norad_id": 66530,
        "name": "STARLINK-35961",
        "group": "last-30-days",
        "lat": 40.04722024565256,
        "lon": -167.03645396004381,
        "alt_km": 394.4141770226206,
        "timestamp": "2025-12-08T17:43:03.632210+00:00",
        "meta_object_name": "STARLINK-35961",
        "meta_object_id": "2025-265Q",
        "meta_epoch": "2025-12-08T06:00:02.999808",
        "meta_mean_motion": 15.57918814,
        "meta_eccentricity": 0.00010919,
        "meta_inclination": 43.0005,
        "meta_ra_of_asc_node": 80.2641,
        "meta_arg_of_pericenter": 261.5242,
        "meta_mean_anomaly": 348.2475,
        "meta_ephemeris_type": 0,
        "meta_classification_type": "U",
        "meta_norad_cat_id": 66530,
        "meta_element_set_no": 999,
        "meta_rev_at_epoch": 427,
        "meta_bstar": -0.02922033,
        "meta_mean_motion_dot": -0.01970821,
        "meta_mean_motion_ddot": 0,
        "tle_line1": "1 66530U 25265Q   25342.25003472 -.01970821  00000+0 -29220-1 0  9994",
        "tle_line2": "2 66530  43.0005  80.2641 0001091 261.5242 348.2475 15.57918814  4273"
      },
      "geometry": {
        "type": "Point",
        "coordinates": [
          -167.03645396004381,
          40.04722024565256
        ]
      }
    },
    {
      "type": "Feature",
      "properties": {
        "norad_id": 66531,
        "name": "STARLINK-35960",
        "group": "last-30-days",
        "lat": 39.4604812280286,
        "lon": -164.67735980508468,
        "alt_km": 394.78439451308714,
        "timestamp": "2025-12-08T17:43:03.632226+00:00",
        "meta_object_name": "STARLINK-35960",
        "meta_object_id": "2025-265R",
        "meta_epoch": "2025-12-08T06:00:02.999808",
        "meta_mean_motion": 15.57930955,
        "meta_eccentricity": 0.00014136,
        "meta_inclination": 43.0004,
        "meta_ra_of_asc_node": 80.2578,
        "meta_arg_of_pericenter": 264.8716,
        "meta_mean_anomaly": 346.8158,
        "meta_ephemeris_type": 0,
        "meta_classification_type": "U",
        "meta_norad_cat_id": 66531,
        "meta_element_set_no": 999,
        "meta_rev_at_epoch": 427,
        "meta_bstar": -0.029650744,
        "meta_mean_motion_dot": -0.0199726,
        "meta_mean_motion_ddot": 0,
        "tle_line1": "1 66531U 25265R   25342.25003472 -.01997260  00000+0 -29651-1 0  9999",
        "tle_line2": "2 66531  43.0004  80.2578 0001413 264.8716 346.8158 15.57930955  4274"
      },
      "geometry": {
        "type": "Point",
        "coordinates": [
          -164.67735980508468,
          39.4604812280286
        ]
      }
    },
    {
      "type": "Feature",
      "properties": {
        "norad_id": 66532,
        "name": "STARLINK-35914",
        "group": "last-30-days",
        "lat": 38.82207993991927,
        "lon": -162.34167052197148,
        "alt_km": 394.6427260022283,
        "timestamp": "2025-12-08T17:43:03.632239+00:00",
        "meta_object_name": "STARLINK-35914",
        "meta_object_id": "2025-265S",
        "meta_epoch": "2025-12-08T06:00:02.999808",
        "meta_mean_motion": 15.57922786,
        "meta_eccentricity": 0.00011839,
        "meta_inclination": 43.0001,
        "meta_ra_of_asc_node": 80.2539,
        "meta_arg_of_pericenter": 260.546,
        "meta_mean_anomaly": 353.0598,
        "meta_ephemeris_type": 0,
        "meta_classification_type": "U",
        "meta_norad_cat_id": 66532,
        "meta_element_set_no": 999,
        "meta_rev_at_epoch": 427,
        "meta_bstar": -0.029374249,
        "meta_mean_motion_dot": -0.01980243,
        "meta_mean_motion_ddot": 0,
        "tle_line1": "1 66532U 25265S   25342.25003472 -.01980243  00000+0 -29374-1 0  9995",
        "tle_line2": "2 66532  43.0001  80.2539 0001183 260.5460 353.0598 15.57922786  4273"
      },
      "geometry": {
        "type": "Point",
        "coordinates": [
          -162.34167052197148,
          38.82207993991927
        ]
      }
    },
    {
      "type": "Feature",
      "properties": {
        "norad_id": 66533,
        "name": "STARLINK-35707",
        "group": "last-30-days",
        "lat": 38.138784082490744,
        "lon": -160.05226209137427,
        "alt_km": 394.7380581381094,
        "timestamp": "2025-12-08T17:43:03.632250+00:00",
        "meta_object_name": "STARLINK-35707",
        "meta_object_id": "2025-265T",
        "meta_epoch": "2025-12-08T06:00:02.999808",
        "meta_mean_motion": 15.57917508,
        "meta_eccentricity": 0.0001159,
        "meta_inclination": 42.9997,
        "meta_ra_of_asc_node": 80.25,
        "meta_arg_of_pericenter": 263.7979,
        "meta_mean_anomaly": 351.7259,
        "meta_ephemeris_type": 0,
        "meta_classification_type": "U",
        "meta_norad_cat_id": 66533,
        "meta_element_set_no": 999,
        "meta_rev_at_epoch": 427,
        "meta_bstar": -0.029239167,
        "meta_mean_motion_dot": -0.01971896,
        "meta_mean_motion_ddot": 0,
        "tle_line1": "1 66533U 25265T   25342.25003472 -.01971896  00000+0 -29239-1 0  9990",
        "tle_line2": "2 66533  42.9997  80.2500 0001159 263.7979 351.7259 15.57917508  4272"
      },
      "geometry": {
        "type": "Point",
        "coordinates": [
          -160.05226209137427,
          38.138784082490744
        ]
      }
    }
  ]
}